[{"OBJECT_NAME":"COSMOS 2400","OBJECT_ID":"2003-037A","EPOCH":"2026-03-09T23:52:03.858240","MEAN_MOTION":12.45187793,"ECCENTRICITY":0.00203419,"INCLINATION":82.4728,"RA_OF_ASC_NODE":32.0387,"ARG_OF_PERICENTER":273.6091,"MEAN_ANOMALY":86.2663,"EPHEMERIS_TYPE":0,"CLASSIFICATION_TYPE":"U","NORAD_CAT_ID":27868,"ELEMENT_SET_NO":999,"REV_AT_EPOCH":2519,"BSTAR":8.7847276e-5,"MEAN_MOTION_DOT":2.2e-7,"MEAN_MOTION_DDOT":0},{"OBJECT_NAME":"COSMOS 2009","OBJECT_ID":"1989-025B","EPOCH":"2026-03-09T23:10:18.473376","MEAN_MOTION":12.55947774,"ECCENTRICITY":0.00409861,"INCLINATION":74.0073,"RA_OF_ASC_NODE":237.2347,"ARG_OF_PERICENTER":142.9736,"MEAN_ANOMALY":338.7175,"EPHEMERIS_TYPE":0,"CLASSIFICATION_TYPE":"U","NORAD_CAT_ID":19903,"ELEMENT_SET_NO":999,"REV_AT_EPOCH":69450,"BSTAR":7.4531071e-5,"MEAN_MOTION_DOT":-4.0e-8,"MEAN_MOTION_DDOT":0}]
